SAUDISAT 1C (SO-50)     
1 27607U 02058C   26160.67027096  .00000963  00000+0  13085-3 0  9996
2 27607  64.5504 152.2423 0075428 263.8699  95.3809 14.83030513263346
SAUDISAT 2              
1 28371U 04025F   26161.22872160  .00000235  00000+0  63648-4 0  9996
2 28371  98.5506 161.0308 0023888 320.5054  39.4402 14.56679788164737
SAUDISAT 3              
1 31118U 07012B   26161.11844966  .00000232  00000+0  45703-4 0  9998
2 31118  98.1453 111.5145 0013335 248.2816 111.6972 14.71421550 26702
PISAT                   
1 41784U 16059B   26161.26430841  .00000809  00000+0  14543-3 0  9995
2 41784  97.8178 162.0146 0027883 225.5900 134.3023 14.68971671518726
FLYING LAPTOP           
1 42831U 17042G   26161.25302355  .00003044  00000+0  24142-3 0  9999
2 42831  97.4660 317.0547 0019271 144.3500 215.9016 15.01099954485415
SALSAT                  
1 46495U 20068K   26161.27729316  .00007605  00000+0  26695-3 0  9995
2 46495  97.8853 163.9217 0008648 336.5873  23.4971 15.29700288314309
